ONEWEB-0499             
1 54117U 22138E   26193.83567933  .00000027  00000+0  35192-4 0  9991
2 54117  87.9183 299.8641 0001879 108.8578 251.2759 13.19724680180200
ONEWEB-0500             
1 54118U 22138F   26193.83806189  .00000076  00000+0  15644-3 0  9994
2 54118  87.9199 299.8584 0002066  97.7909 262.3459 13.19726233180214
ONEWEB-0501             
1 54119U 22138G   26193.79226058  .00000015  00000+0  43665-5 0  9990
2 54119  87.9188 299.8696 0002024 113.9179 246.2165 13.19725764180180
ONEWEB-0502             
1 54120U 22138H   26193.85384770  .00000904  00000+0  22252-2 0  9998
2 54120  87.9185 299.8480 0001930 104.6664 255.4683 13.19731266180216
ONEWEB-0503             
1 54121U 22138J   26194.22187853  .00000023  00000+0  25168-4 0  9997
2 54121  87.9206 299.7771 0001762  95.1156 265.0178 13.19726561180258
ONEWEB-0504             
1 54122U 22138K   26193.83015868  .00000014  00000+0  17203-5 0  9992
2 54122  87.9190 299.8614 0001855 109.2549 250.8785 13.19726449180211
ONEWEB-0505             
1 54123U 22138L   26193.82697963 -.00000014  00000+0 -67424-4 0  9995
2 54123  87.9187 299.8631 0001868 114.7016 245.4311 13.19727534180199
ONEWEB-0506             
1 54124U 22138M   26193.80173815  .00000001  00000+0 -29177-4 0  9997
2 54124  87.9191 299.8656 0002009 113.2098 246.9247 13.19725116180181
ONEWEB-0507             
1 54125U 22138N   26193.82225434  .00000052  00000+0  97506-4 0  9991
2 54125  87.9208 299.8671 0001837 128.0192 232.1107 13.19726639180234
ONEWEB-0508             
1 54126U 22138P   26193.66747174 -.00000075  00000+0 -21916-3 0  9992
2 54126  87.9171 299.9038 0002130 126.8699 233.2630 13.19721761180196
ONEWEB-0509             
1 54127U 22138Q   26193.79382191  .00000031  00000+0  44240-4 0  9997
2 54127  87.9194 299.8684 0002007 105.8357 254.2997 13.19724237180188
ONEWEB-0510             
1 54128U 22138R   26194.19234137 -.00000071  00000+0 -20596-3 0  9992
2 54128  87.9182 269.2552 0002004  88.8300 271.3063 13.20769748182719
ONEWEB-0511             
1 54129U 22138S   26193.79065339  .00000080  00000+0  16757-3 0  9996
2 54129  87.9191 299.8700 0001720 102.1892 257.9433 13.19723497180217
ONEWEB-0512             
1 54130U 22138T   26193.85857936 -.00000037  00000+0 -12447-3 0  9993
2 54130  87.9187 299.8595 0001582 110.8419 249.2883 13.19727384180192
ONEWEB-0513             
1 54131U 22138U   26193.77785455  .00000130  00000+0  28992-3 0  9995
2 54131  87.9192 299.8173 0001453 121.7894 238.3380 13.20269415180094
ONEWEB-0514             
1 54132U 22138V   26193.79856433 -.00000030  00000+0 -10735-3 0  9990
2 54132  87.9188 299.8689 0001949  99.3340 260.8013 13.19726092180201
ONEWEB-0515             
1 54133U 22138W   26194.17889562 -.00003131  00000+0 -77319-2 0  9998
2 54133  87.9201 269.2515 0003119  87.5038 272.6453 13.20789186182735
ONEWEB-0516             
1 54134U 22138X   26193.84909817  .00000071  00000+0  14400-3 0  9999
2 54134  87.9185 299.8621 0002096 102.5299 257.6068 13.19724302180217
ONEWEB-0517             
1 54135U 22138Y   26193.82857784 -.00000046  00000+0 -14651-3 0  9995
2 54135  87.9193 299.8601 0001644 100.5093 259.6225 13.19726779180210
ONEWEB-0518             
1 54136U 22138Z   26193.77170777  .00000108  00000+0  23638-3 0  9992
2 54136  87.9184 299.8797 0002177 105.3395 254.7978 13.19724225180201
ONEWEB-0519             
1 54137U 22138AA  26193.79696926  .00000053  00000+0  10127-3 0  9992
2 54137  87.9193 299.8674 0001746  99.7220 260.4110 13.19723511180210
ONEWEB-0520             
1 54138U 22138AB  26193.83173782  .00000002  00000+0 -26917-4 0  9998
2 54138  87.9192 299.8614 0002014 110.0822 250.0527 13.19726538180206
ONEWEB-0521             
1 54139U 22138AC  26193.86489398  .00000075  00000+0  15620-3 0  9992
2 54139  87.9195 299.8437 0001842  95.6474 264.4869 13.19726598180150
ONEWEB-0522             
1 54140U 22138AD  26194.22344608 -.00002811  00000+0 -70556-2 0  9999
2 54140  87.9213 299.7724 0001911 121.6547 238.4772 13.19735053180249
ONEWEB-0523             
1 54141U 22138AE  26193.71086750  .00000022  00000+0  21496-4 0  9995
2 54141  87.9187 269.3556 0002330  80.5413 279.5983 13.20772638182678
ONEWEB-0524             
1 54142U 22138AF  26194.00379824  .00000035  00000+0  54528-4 0  9992
2 54142  87.9187 269.2937 0002927  96.2376 263.9091 13.20772338182714
ONEWEB-0525             
1 54143U 22138AG  26193.86331198  .00000095  00000+0  20522-3 0  9990
2 54143  87.9194 299.8533 0002124 112.3386 247.7972 13.19723826180211
ONEWEB-0526             
1 54144U 22138AH  26194.19975352 -.00000008  00000+0 -52253-4 0  9997
2 54144  87.9193 299.7871 0002129 103.7970 256.3400 13.19723757180230
ONEWEB-0529             
1 54145U 22138AJ  26193.82384187 -.00000031  00000+0 -10982-3 0  9995
2 54145  87.9191 299.8683 0002049 108.9594 251.1761 13.19726196180201
ONEWEB-0531             
1 54146U 22138AK  26193.76305260  .00000103  00000+0  22199-3 0  9995
2 54146  87.9191 269.3386 0002612  81.2048 278.9381 13.20773364182687
