OBJECT_NAME,OBJECT_ID,EPOCH,MEAN_MOTION,ECCENTRICITY,INCLINATION,RA_OF_ASC_NODE,ARG_OF_PERICENTER,MEAN_ANOMALY,EPHEMERIS_TYPE,CLASSIFICATION_TYPE,NORAD_CAT_ID,ELEMENT_SET_NO,REV_AT_EPOCH,BSTAR,MEAN_MOTION_DOT,MEAN_MOTION_DDOT
ONEWEB-0499,2022-138E,2026-07-12T20:03:22.694112,13.19724680,.0001879,87.9183,299.8641,108.8578,251.2759,0,U,54117,999,18020,.35192E-4,.27E-6,0
ONEWEB-0500,2022-138F,2026-07-12T20:06:48.547296,13.19726233,.0002066,87.9199,299.8584,97.7909,262.3459,0,U,54118,999,18021,.15644E-3,.76E-6,0
ONEWEB-0501,2022-138G,2026-07-12T19:00:51.314112,13.19725764,.0002024,87.9188,299.8696,113.9179,246.2165,0,U,54119,999,18018,.43665E-5,.15E-6,0
ONEWEB-0502,2022-138H,2026-07-12T20:29:32.441280,13.19731266,.000193,87.9185,299.8480,104.6664,255.4683,0,U,54120,999,18021,.22252E-2,.904E-5,0
ONEWEB-0503,2022-138J,2026-07-13T05:19:30.304992,13.19726561,.0001762,87.9206,299.7771,95.1156,265.0178,0,U,54121,999,18025,.25168E-4,.23E-6,0
ONEWEB-0504,2022-138K,2026-07-12T19:55:25.709952,13.19726449,.0001855,87.9190,299.8614,109.2549,250.8785,0,U,54122,999,18021,.17203E-5,.14E-6,0
ONEWEB-0505,2022-138L,2026-07-12T19:50:51.040032,13.19727534,.0001868,87.9187,299.8631,114.7016,245.4311,0,U,54123,999,18019,-.67424E-4,-.14E-6,0
ONEWEB-0506,2022-138M,2026-07-12T19:14:30.176160,13.19725116,.0002009,87.9191,299.8656,113.2098,246.9247,0,U,54124,999,18018,-.29177E-4,.1E-7,0
ONEWEB-0507,2022-138N,2026-07-12T19:44:02.774976,13.19726639,.0001837,87.9208,299.8671,128.0192,232.1107,0,U,54125,999,18023,.97506E-4,.52E-6,0
ONEWEB-0508,2022-138P,2026-07-12T16:01:09.558336,13.19721761,.000213,87.9171,299.9038,126.8699,233.2630,0,U,54126,999,18019,-.21916E-3,-.75E-6,0
ONEWEB-0509,2022-138Q,2026-07-12T19:03:06.213024,13.19724237,.0002007,87.9194,299.8684,105.8357,254.2997,0,U,54127,999,18018,.4424E-4,.31E-6,0
ONEWEB-0510,2022-138R,2026-07-13T04:36:58.294368,13.20769748,.0002004,87.9182,269.2552,88.8300,271.3063,0,U,54128,999,18271,-.20596E-3,-.71E-6,0
ONEWEB-0511,2022-138S,2026-07-12T18:58:32.452896,13.19723497,.000172,87.9191,299.8700,102.1892,257.9433,0,U,54129,999,18021,.16757E-3,.8E-6,0
ONEWEB-0512,2022-138T,2026-07-12T20:36:21.256704,13.19727384,.0001582,87.9187,299.8595,110.8419,249.2883,0,U,54130,999,18019,-.12447E-3,-.37E-6,0
ONEWEB-0513,2022-138U,2026-07-12T18:40:06.633120,13.20269415,.0001453,87.9192,299.8173,121.7894,238.3380,0,U,54131,999,18009,.28992E-3,.13E-5,0
ONEWEB-0514,2022-138V,2026-07-12T19:09:55.958112,13.19726092,.0001949,87.9188,299.8689,99.3340,260.8013,0,U,54132,999,18020,-.10735E-3,-.3E-6,0
ONEWEB-0515,2022-138W,2026-07-13T04:17:36.581568,13.20789186,.0003119,87.9201,269.2515,87.5038,272.6453,0,U,54133,999,18273,-.77319E-2,-.3131E-4,0
ONEWEB-0516,2022-138X,2026-07-12T20:22:42.081888,13.19724302,.0002096,87.9185,299.8621,102.5299,257.6068,0,U,54134,999,18021,.144E-3,.71E-6,0
ONEWEB-0517,2022-138Y,2026-07-12T19:53:09.125376,13.19726779,.0001644,87.9193,299.8601,100.5093,259.6225,0,U,54135,999,18021,-.14651E-3,-.46E-6,0
ONEWEB-0518,2022-138Z,2026-07-12T18:31:15.551328,13.19724225,.0002177,87.9184,299.8797,105.3395,254.7978,0,U,54136,999,18020,.23638E-3,.108E-5,0
ONEWEB-0519,2022-138AA,2026-07-12T19:07:38.144064,13.19723511,.0001746,87.9193,299.8674,99.7220,260.4110,0,U,54137,999,18021,.10127E-3,.53E-6,0
ONEWEB-0520,2022-138AB,2026-07-12T19:57:42.147648,13.19726538,.0002014,87.9192,299.8614,110.0822,250.0527,0,U,54138,999,18020,-.26917E-4,.2E-7,0
ONEWEB-0521,2022-138AC,2026-07-12T20:45:26.839872,13.19726598,.0001842,87.9195,299.8437,95.6474,264.4869,0,U,54139,999,18015,.1562E-3,.75E-6,0
ONEWEB-0522,2022-138AD,2026-07-13T05:21:45.741312,13.19735053,.0001911,87.9213,299.7724,121.6547,238.4772,0,U,54140,999,18024,-.70556E-2,-.2811E-4,0
ONEWEB-0523,2022-138AE,2026-07-12T17:03:38.952000,13.20772638,.000233,87.9187,269.3556,80.5413,279.5983,0,U,54141,999,18267,.21496E-4,.22E-6,0
ONEWEB-0524,2022-138AF,2026-07-13T00:05:28.167936,13.20772338,.0002927,87.9187,269.2937,96.2376,263.9091,0,U,54142,999,18271,.54528E-4,.35E-6,0
ONEWEB-0525,2022-138AG,2026-07-12T20:43:10.155072,13.19723826,.0002124,87.9194,299.8533,112.3386,247.7972,0,U,54143,999,18021,.20522E-3,.95E-6,0
ONEWEB-0526,2022-138AH,2026-07-13T04:47:38.704128,13.19723757,.0002129,87.9193,299.7871,103.7970,256.3400,0,U,54144,999,18023,-.52253E-4,-.8E-7,0
ONEWEB-0529,2022-138AJ,2026-07-12T19:46:19.937568,13.19726196,.0002049,87.9191,299.8683,108.9594,251.1761,0,U,54145,999,18020,-.10982E-3,-.31E-6,0
ONEWEB-0531,2022-138AK,2026-07-12T18:18:47.744640,13.20773364,.0002612,87.9191,269.3386,81.2048,278.9381,0,U,54146,999,18268,.22199E-3,.103E-5,0
